CELESTIS-02             
1 25160U 98007D   09161.77454523 -.00000096  00000-0  15142-4 0   705
2 25160 107.9806  70.5024 0063722 336.4117  23.4109 14.20839952587530
CELESTIS-03             
1 26034U 99070C   09161.83539632  .00000214  00000-0  35982-4 0  5574
2 26034  98.3702 173.1688 0019147  14.9771 345.1957 14.79813253509383
AMC-14                  
1 32708U 08011A   09161.05662781  .00000177  00000-0  10000-3 0  4312
2 32708  13.3081 118.2378 0056001 357.3972 197.7214  1.00272808  5831
